{"type":"FeatureCollection","features":[{"type":"Feature","properties":{"name":"India"},"geometry":{"type":"MultiPolygon","coordinates":[[[[77.519,35.486],[77.509,35.58],[77.469,35.652],[77.421,35.64],[77.349,35.72],[77.209,35.71],[77.09,35.74],[77.069,35.78],[77.009,35.82],[76.839,35.86],[76.779,35.91],[76.779,36.04],[76.759,36.11],[76.719,36.16],[76.669,36.19],[76.568,36.19],[76.429,36.24],[76.389,36.31],[76.319,36.33],[76.239,36.32],[76.149,36.425],[76.028,36.44],[75.998,36.501],[75.969,36.522],[75.936,36.576],[75.941,36.606],[75.847,36.686],[75.736,36.753],[75.633,36.78],[75.54,36.78],[75.534,36.734],[75.504,36.749],[75.46,36.73],[75.426,36.784],[75.433,36.876],[75.398,36.909],[75.419,36.945],[75.406,36.965],[75.282,36.983],[75.241,36.972],[75.169,36.999],[75.171,37.023],[75.064,37.013],[75.033,37.026],[74.997,37.001],[74.923,36.983],[74.939,36.948],[74.902,36.941],[74.843,37.024],[74.841,37.066],[74.794,37.057],[74.791,37.038],[74.735,37.038],[74.704,37.098],[74.631,37.075],[74.573,37.039],[74.563,36.971],[74.501,37.009],[74.424,37.007],[74.358,36.975],[74.277,36.915],[74.243,36.905],[74.151,36.918],[74.13,36.857],[74.041,36.834],[73.975,36.841],[73.911,36.889],[73.842,36.907],[73.801,36.9],[73.67,36.922],[73.651,36.916],[73.684,36.866],[73.721,36.842],[73.785,36.835],[73.827,36.808],[73.868,36.755],[73.834,36.71],[73.775,36.728],[73.688,36.723],[73.657,36.707],[73.604,36.71],[73.569,36.736],[73.507,36.73],[73.409,36.759],[73.374,36.758],[73.268,36.721],[73.214,36.718],[73.152,36.73],[73.049,36.685],[73.075,36.609],[73.041,36.548],[72.97,36.509],[72.967,36.477],[72.871,36.452],[72.857,36.388],[72.759,36.327],[72.722,36.313],[72.653,36.264],[72.594,36.27],[72.549,36.233],[72.54,36.136],[72.524,36.112],[72.53,36.06],[72.568,36.012],[72.51,35.902],[72.569,35.852],[72.683,35.82],[72.786,35.848],[72.819,35.888],[72.837,35.873],[72.891,35.877],[72.904,35.842],[72.999,35.863],[73.026,35.842],[73.092,35.876],[73.129,35.846],[73.178,35.86],[73.2,35.827],[73.2,35.787],[73.158,35.762],[73.12,35.765],[73.126,35.721],[73.192,35.677],[73.331,35.663],[73.364,35.6],[73.395,35.587],[73.418,35.525],[73.5,35.543],[73.617,35.541],[73.665,35.531],[73.786,35.524],[73.794,35.449],[73.727,35.419],[73.693,35.349],[73.712,35.28],[73.765,35.221],[73.809,35.243],[73.871,35.205],[73.926,35.21],[73.958,35.165],[74.003,35.185],[74.036,35.15],[74.112,35.153],[74.129,35.105],[74.095,35.091],[74.077,35.048],[74.111,35.018],[74.06,34.982],[74.072,34.938],[74.039,34.914],[74.045,34.89],[73.978,34.866],[73.968,34.836],[73.838,34.814],[73.831,34.791],[73.778,34.795],[73.728,34.764],[73.664,34.663],[73.7,34.648],[73.659,34.599],[73.657,34.563],[73.606,34.585],[73.557,34.588],[73.537,34.572],[73.453,34.569],[73.429,34.469],[73.421,34.399],[73.398,34.378],[73.449,34.321],[73.499,34.208],[73.495,34.135],[73.511,34.019],[73.544,33.954],[73.588,33.907],[73.592,33.863],[73.567,33.798],[73.599,33.74],[73.596,33.681],[73.572,33.63],[73.628,33.568],[73.634,33.526],[73.612,33.508],[73.63,33.456],[73.602,33.435],[73.576,33.377],[73.627,33.242],[73.67,33.211],[73.67,33.152],[73.625,33.132],[73.653,33.08],[73.746,33.056],[73.776,33.021],[73.83,33.012],[73.904,33.039],[73.945,33.02],[73.984,32.967],[74.075,32.931],[74.341,32.81],[74.372,32.77],[74.411,32.772],[74.445,32.804],[74.51,32.747],[74.633,32.752],[74.633,32.809],[74.705,32.842],[74.704,32.817],[74.654,32.729],[74.666,32.676],[74.696,32.666],[74.655,32.637],[74.642,32.6],[74.652,32.563],[74.69,32.534],[74.681,32.493],[74.712,32.479],[74.813,32.48],[74.821,32.497],[74.952,32.446],[75.02,32.468],[75.027,32.498],[75.109,32.46],[75.133,32.409],[75.192,32.426],[75.258,32.372],[75.29,32.37],[75.337,32.322],[75.321,32.297],[75.372,32.279],[75.372,32.225],[75.331,32.219],[75.322,32.179],[75.24,32.091],[75.203,32.12],[75.198,32.083],[75.174,32.068],[75.123,32.081],[75.012,32.036],[74.926,32.067],[74.875,32.051],[74.88,32.032],[74.829,31.998],[74.819,31.959],[74.722,31.943],[74.677,31.926],[74.636,31.884],[74.607,31.89],[74.571,31.837],[74.547,31.749],[74.505,31.74],[74.487,31.715],[74.535,31.678],[74.555,31.608],[74.616,31.557],[74.613,31.527],[74.584,31.521],[74.653,31.455],[74.643,31.416],[74.597,31.416],[74.583,31.379],[74.554,31.366],[74.521,31.269],[74.533,31.249],[74.51,31.132],[74.548,31.122],[74.551,31.086],[74.601,31.088],[74.603,31.134],[74.636,31.118],[74.689,31.128],[74.702,31.092],[74.671,31.054],[74.597,31.038],[74.574,31.057],[74.548,31.032],[74.546,30.992],[74.498,30.964],[74.416,30.94],[74.423,30.908],[74.366,30.893],[74.382,30.86],[74.32,30.847],[74.297,30.777],[74.26,30.772],[74.275,30.737],[74.233,30.725],[74.219,30.693],[74.149,30.631],[74.105,30.619],[74.091,30.549],[74.057,30.519],[74.048,30.54],[73.993,30.514],[73.964,30.485],[73.964,30.456],[73.935,30.49],[73.927,30.439],[73.974,30.444],[73.965,30.425],[73.88,30.36],[73.931,30.32],[73.96,30.27],[73.973,30.198],[73.83,30.093],[73.807,30.068],[73.597,30.019],[73.397,29.946],[73.282,29.572],[73.084,29.236],[73.004,29.153],[72.946,29.028],[72.733,28.948],[72.479,28.812],[72.404,28.783],[72.299,28.67],[72.207,28.395],[72.132,28.313],[72.004,28.219],[71.927,28.122],[71.898,27.961],[71.666,27.878],[71.383,27.873],[71.206,27.835],[70.906,27.709],[70.872,27.706],[70.759,27.721],[70.684,27.828],[70.677,27.922],[70.589,28.01],[70.506,28.037],[70.372,28.012],[70.296,27.936],[70.227,27.901],[70.133,27.806],[70.026,27.563],[69.934,27.498],[69.863,27.402],[69.76,27.321],[69.703,27.284],[69.645,27.225],[69.587,27.183],[69.513,27.01],[69.498,26.867],[69.484,26.805],[69.51,26.744],[69.725,26.652],[69.792,26.598],[69.886,26.579],[70.056,26.601],[70.117,26.587],[70.174,26.551],[70.185,26.48],[70.177,26.424],[70.185,26.374],[70.164,26.295],[70.175,26.251],[70.141,26.156],[70.083,26.083],[70.1,25.938],[70.174,25.828],[70.222,25.793],[70.269,25.714],[70.387,25.674],[70.53,25.683],[70.609,25.715],[70.647,25.713],[70.674,25.676],[70.667,25.531],[70.679,25.526],[70.665,25.397],[70.737,25.332],[70.752,25.278],[70.888,25.148],[70.909,25.041],[70.938,24.939],[71.027,24.809],[71.066,24.717],[71.096,24.689],[71.075,24.662],[71.009,24.635],[70.986,24.596],[70.987,24.544],[71.005,24.523],[70.999,24.444],[71.037,24.432],[71.103,24.436],[71.12,24.402],[71.084,24.395],[71.049,24.356],[71.02,24.347],[70.986,24.365],[70.947,24.349],[70.874,24.295],[70.909,24.263],[70.805,24.221],[70.714,24.216],[70.644,24.225],[70.571,24.252],[70.585,24.278],[70.563,24.351],[70.603,24.408],[70.573,24.422],[70.412,24.375],[70.363,24.351],[70.327,24.352],[70.254,24.325],[70.11,24.295],[70.067,24.199],[70.025,24.171],[69.732,24.171],[69.594,24.292],[69.504,24.268],[69.444,24.28],[69.367,24.27],[69.313,24.281],[69.194,24.236],[69.095,24.274],[69.013,24.224],[68.985,24.228],[68.945,24.303],[68.907,24.28],[68.874,24.212],[68.857,24.214],[68.831,24.312],[68.765,24.296],[68.769,24.266],[68.753,23.971],[68.398,23.97],[68.372,23.965],[68.329,23.913],[68.294,23.922],[68.267,23.895],[68.256,23.843],[68.208,23.835],[68.213,23.765],[68.19,23.729],[68.254,23.672],[68.295,23.72],[68.345,23.741],[68.262,23.65],[68.191,23.646],[68.178,23.603],[68.217,23.573],[68.269,23.556],[68.35,23.582],[68.393,23.609],[68.398,23.663],[68.42,23.717],[68.413,23.76],[68.434,23.777],[68.422,23.806],[68.446,23.818],[68.453,23.775],[68.434,23.736],[68.476,23.748],[68.46,23.769],[68.532,23.752],[68.579,23.811],[68.679,23.845],[68.765,23.841],[68.687,23.823],[68.63,23.761],[68.553,23.719],[68.453,23.597],[68.426,23.553],[68.428,23.504],[68.457,23.511],[68.455,23.476],[68.486,23.479],[68.559,23.395],[68.576,23.347],[68.637,23.306],[68.634,23.246],[68.579,23.227],[68.644,23.17],[68.666,23.174],[68.713,23.125],[68.658,23.151],[68.757,23.08],[68.811,23.059],[68.962,22.968],[69.057,22.921],[69.2,22.835],[69.268,22.822],[69.304,22.835],[69.405,22.805],[69.452,22.775],[69.554,22.779],[69.711,22.738],[69.744,22.787],[69.742,22.811],[69.799,22.845],[69.898,22.871],[69.93,22.896],[70.069,22.92],[70.1,22.908],[70.14,22.941],[70.205,22.944],[70.233,22.97],[70.22,23.013],[70.231,23.038],[70.237,22.977],[70.267,22.953],[70.347,22.923],[70.387,22.933],[70.4,22.982],[70.434,22.979],[70.411,22.924],[70.351,22.885],[70.32,22.795],[70.318,22.759],[70.261,22.72],[70.259,22.657],[70.198,22.601],[70.173,22.542],[70.146,22.555],[69.986,22.545],[69.946,22.527],[69.878,22.45],[69.83,22.448],[69.808,22.398],[69.787,22.405],[69.728,22.475],[69.703,22.45],[69.699,22.398],[69.664,22.395],[69.652,22.347],[69.623,22.365],[69.605,22.343],[69.575,22.37],[69.564,22.352],[69.548,22.403],[69.52,22.425],[69.525,22.391],[69.48,22.332],[69.414,22.315],[69.336,22.322],[69.335,22.306],[69.283,22.27],[69.224,22.256],[69.157,22.312],[69.171,22.373],[69.199,22.398],[69.164,22.404],[69.035,22.39],[69.042,22.434],[69.083,22.472],[69.012,22.444],[68.977,22.402],[68.959,22.345],[68.935,22.313],[68.957,22.239],[69.052,22.133],[69.262,21.912],[69.335,21.848],[69.38,21.84],[69.391,21.805],[69.584,21.635],[69.607,21.631],[69.706,21.535],[69.912,21.302],[70.052,21.15],[70.156,21.055],[70.262,20.97],[70.363,20.902],[70.396,20.891],[70.442,20.853],[70.543,20.801],[70.651,20.762],[70.748,20.718],[70.839,20.69],[70.843,20.705],[70.981,20.7],[71.013,20.738],[71.082,20.737],[71.086,20.757],[71.204,20.787],[71.324,20.845],[71.442,20.868],[71.48,20.891],[71.514,20.955],[71.562,20.967],[71.567,20.949],[71.635,20.972],[71.744,21.03],[71.774,21.062],[71.791,21.051],[71.899,21.109],[71.944,21.114],[72.111,21.199],[72.085,21.25],[72.129,21.334],[72.236,21.454],[72.266,21.542],[72.268,21.573],[72.306,21.632],[72.277,21.694],[72.252,21.695],[72.225,21.747],[72.238,21.766],[72.178,21.827],[72.247,21.808],[72.256,21.894],[72.24,21.943],[72.242,22.032],[72.299,22.103],[72.308,22.147],[72.293,22.192],[72.298,22.238],[72.331,22.248],[72.338,22.285],[72.373,22.339],[72.389,22.326],[72.412,22.257],[72.412,22.209],[72.435,22.205],[72.471,22.252],[72.55,22.302],[72.645,22.284],[72.711,22.242],[72.757,22.231],[72.84,22.282],[72.869,22.285],[72.909,22.254],[72.871,22.236],[72.83,22.259],[72.79,22.228],[72.761,22.174],[72.702,22.184],[72.646,22.216],[72.586,22.205],[72.562,22.179],[72.515,22.027],[72.526,21.999],[72.508,21.976],[72.514,21.914],[72.537,21.896],[72.647,21.965],[72.698,21.971],[72.735,21.957],[72.714,21.936],[72.679,21.955],[72.652,21.947],[72.584,21.836],[72.527,21.711],[72.548,21.658],[72.603,21.683],[72.715,21.68],[72.747,21.689],[72.784,21.664],[72.885,21.69],[72.927,21.673],[72.894,21.663],[72.843,21.671],[72.823,21.61],[72.777,21.598],[72.728,21.539],[72.641,21.455],[72.697,21.46],[72.648,21.39],[72.653,21.33],[72.635,21.343],[72.604,21.314],[72.626,21.254],[72.658,21.224],[72.621,21.179],[72.625,21.098],[72.644,21.079],[72.662,21.136],[72.684,21.159],[72.733,21.144],[72.749,21.175],[72.789,21.18],[72.739,21.14],[72.71,21.131],[72.707,21.087],[72.747,21.085],[72.792,21.056],[72.726,21.034],[72.757,20.93],[72.834,20.964],[72.783,20.915],[72.85,20.759],[72.845,20.744],[72.899,20.589],[72.891,20.502],[72.828,20.435],[72.822,20.366],[72.777,20.336],[72.742,20.247],[72.748,20.202],[72.738,20.115],[72.708,20.072],[72.719,19.975],[72.666,19.934],[72.683,19.865],[72.655,19.833],[72.69,19.794],[72.687,19.751],[72.709,19.712],[72.715,19.647],[72.745,19.597],[72.716,19.592],[72.723,19.541],[72.763,19.506],[72.827,19.509],[72.778,19.492],[72.746,19.464],[72.765,19.397],[72.759,19.372],[72.813,19.324],[72.842,19.341],[72.885,19.32],[72.902,19.287],[72.857,19.315],[72.81,19.292],[72.788,19.308],[72.776,19.223],[72.783,19.192],[72.822,19.24],[72.782,19.167],[72.825,19.106],[72.815,18.982],[72.79,18.947],[72.82,18.943],[72.808,18.891],[72.846,18.927],[72.866,19.006],[72.914,18.997],[72.96,19.041],[72.947,19.093],[72.976,19.147],[73.008,18.998],[73.02,18.98],[72.95,18.946],[72.962,18.908],[72.922,18.91],[72.907,18.887],[72.943,18.844],[72.989,18.865],[72.997,18.776],[72.936,18.823],[72.925,18.8],[72.864,18.792],[72.865,18.65],[72.93,18.54],[72.913,18.529],[72.895,18.457],[72.929,18.377],[72.921,18.347],[72.953,18.332],[72.972,18.297],[73.069,18.271],[73.081,18.216],[73.021,18.243],[72.975,18.246],[72.972,18.271],[72.938,18.281],[72.943,18.232],[72.983,18.191],[72.973,18.13],[72.993,18.097],[72.995,18.048],[73.026,17.987],[73.065,17.993],[73.031,17.952],[73.055,17.924],[73.092,17.84],[73.136,17.717],[73.118,17.672],[73.138,17.61],[73.19,17.577],[73.141,17.563],[73.179,17.514],[73.195,17.464],[73.18,17.386],[73.214,17.379],[73.24,17.291],[73.192,17.302],[73.225,17.263],[73.288,17.077],[73.312,17.078],[73.28,17.034],[73.257,17.048],[73.27,16.995],[73.297,16.98],[73.283,16.954],[73.296,16.899],[73.288,16.872],[73.301,16.81],[73.331,16.819],[73.31,16.786],[73.308,16.727],[73.334,16.685],[73.334,16.618],[73.365,16.514],[73.337,16.56],[73.313,16.537],[73.367,16.397],[73.394,16.367],[73.385,16.336],[73.44,16.198],[73.472,16.095],[73.46,16.051],[73.482,16.038],[73.487,15.988],[73.511,15.938],[73.538,15.94],[73.587,15.91],[73.63,15.849],[73.666,15.754],[73.691,15.716],[73.738,15.608],[73.734,15.588],[73.77,15.49],[73.826,15.5],[73.804,15.45],[73.85,15.45],[73.883,15.43],[73.886,15.4],[73.822,15.409],[73.79,15.395],[73.842,15.358],[73.878,15.367],[73.905,15.311],[73.948,15.145],[73.914,15.082],[73.984,15.054],[73.992,15.018],[74.035,14.998],[74.044,14.913],[74.099,14.887],[74.12,14.799],[74.207,14.714],[74.202,14.732],[74.246,14.738],[74.266,14.698],[74.311,14.518],[74.378,14.527],[74.359,14.498],[74.394,14.413],[74.422,14.286],[74.482,14.277],[74.496,14.252],[74.455,14.247],[74.43,14.264],[74.467,14.192],[74.513,13.987],[74.585,13.921],[74.615,13.837],[74.65,13.664],[74.686,13.638],[74.675,13.584],[74.695,13.425],[74.695,13.343],[74.709,13.333],[74.762,13.116],[74.822,12.849],[74.834,12.831],[74.983,12.481],[75.029,12.393],[75.041,12.386],[75.082,12.297],[75.168,12.077],[75.202,12.003],[75.233,12.018],[75.286,11.957],[75.293,11.986],[75.343,11.932],[75.301,11.942],[75.367,11.851],[75.383,11.858],[75.531,11.705],[75.6,11.559],[75.622,11.484],[75.682,11.447],[75.719,11.39],[75.805,11.155],[75.847,11.071],[75.875,10.962],[75.912,10.785],[75.92,10.778],[76.028,10.528],[76.095,10.391],[76.128,10.3],[76.156,10.184],[76.187,10.132],[76.179,10.112],[76.22,10],[76.244,9.974],[76.234,10.018],[76.269,10.034],[76.285,9.961],[76.236,9.964],[76.285,9.748],[76.297,9.607],[76.324,9.458],[76.359,9.362],[76.437,9.194],[76.423,9.239],[76.469,9.148],[76.462,9.131],[76.513,9.024],[76.534,8.948],[76.569,8.955],[76.585,8.992],[76.611,8.975],[76.565,8.918],[76.54,8.929],[76.568,8.875],[76.602,8.865],[76.635,8.831],[76.7,8.737],[76.801,8.615],[76.885,8.506],[76.95,8.432],[77.012,8.35],[77.157,8.245],[77.188,8.213],[77.278,8.161],[77.317,8.123],[77.337,8.126],[77.454,8.091],[77.555,8.075],[77.564,8.118],[77.626,8.153],[77.719,8.165],[77.779,8.195],[77.787,8.223],[77.82,8.247],[77.897,8.274],[78.007,8.351],[78.07,8.374],[78.068,8.418],[78.13,8.493],[78.124,8.527],[78.14,8.588],[78.127,8.64],[78.135,8.687],[78.172,8.745],[78.199,8.758],[78.165,8.77],[78.17,8.876],[78.19,8.928],[78.222,8.969],[78.362,9.067],[78.407,9.105],[78.523,9.132],[78.583,9.127],[78.66,9.152],[78.656,9.183],[78.72,9.185],[78.733,9.208],[78.931,9.266],[79.004,9.27],[79.097,9.26],[79.189,9.28],[79.061,9.299],[79.011,9.333],[78.922,9.435],[78.9,9.482],[78.917,9.497],[78.931,9.587],[78.965,9.629],[78.995,9.712],[79.055,9.771],[79.091,9.826],[79.125,9.856],[79.129,9.893],[79.225,10.006],[79.268,10.04],[79.23,10.097],[79.243,10.182],[79.28,10.213],[79.294,10.26],[79.378,10.296],[79.393,10.32],[79.451,10.319],[79.554,10.351],[79.603,10.347],[79.581,10.312],[79.635,10.349],[79.671,10.332],[79.777,10.314],[79.811,10.291],[79.793,10.273],[79.851,10.276],[79.877,10.3],[79.855,10.593],[79.85,10.744],[79.854,10.972],[79.859,11.029],[79.859,11.173],[79.836,11.335],[79.811,11.432],[79.763,11.527],[79.757,11.59],[79.799,11.793],[79.858,12.007],[79.885,12.063],[80.01,12.253],[80.064,12.342],[80.146,12.443],[80.171,12.54],[80.256,12.781],[80.25,12.859],[80.26,12.938],[80.296,13.127],[80.315,13.168],[80.346,13.283],[80.341,13.363],[80.275,13.552],[80.24,13.622],[80.235,13.7],[80.257,13.782],[80.155,14.019],[80.136,14.085],[80.128,14.184],[80.135,14.255],[80.175,14.376],[80.183,14.523],[80.196,14.578],[80.182,14.585],[80.15,14.688],[80.11,14.753],[80.088,14.808],[80.086,14.89],[80.053,15.015],[80.048,15.074],[80.063,15.144],[80.09,15.208],[80.085,15.276],[80.129,15.376],[80.209,15.477],[80.24,15.609],[80.264,15.669],[80.375,15.772],[80.484,15.831],[80.565,15.861],[80.651,15.879],[80.741,15.875],[80.811,15.834],[80.811,15.78],[80.785,15.808],[80.813,15.742],[80.833,15.742],[80.835,15.705],[80.933,15.712],[80.997,15.741],[81.019,15.766],[80.997,15.822],[81.065,15.904],[81.152,15.972],[81.147,16.009],[81.195,16.101],[81.204,16.175],[81.227,16.224],[81.272,16.277],[81.34,16.32],[81.397,16.341],[81.477,16.353],[81.687,16.327],[81.717,16.309],[81.877,16.38],[81.947,16.394],[82.102,16.478],[82.234,16.543],[82.305,16.56],[82.259,16.561],[82.3,16.585],[82.324,16.653],[82.366,16.719],[82.29,16.696],[82.32,16.734],[82.342,16.736],[82.366,16.842],[82.365,16.922],[82.356,16.851],[82.317,16.851],[82.274,16.87],[82.249,16.907],[82.306,17.038],[82.412,17.143],[82.488,17.208],[82.572,17.265],[82.692,17.335],[82.822,17.399],[82.996,17.474],[83.018,17.505],[83.16,17.56],[83.215,17.59],[83.238,17.628],[83.287,17.662],[83.311,17.704],[83.344,17.722],[83.357,17.756],[83.389,17.779],[83.412,17.84],[83.469,17.914],[83.531,17.95],[83.57,18.007],[83.694,18.098],[83.765,18.135],[83.859,18.17],[83.884,18.192],[83.952,18.214],[84.078,18.278],[84.134,18.315],[84.155,18.376],[84.276,18.488],[84.36,18.554],[84.307,18.532],[84.338,18.567],[84.442,18.657],[84.455,18.69],[84.506,18.75],[84.559,18.792],[84.609,18.888],[84.68,18.955],[84.792,19.112],[84.746,19.075],[84.746,19.117],[84.772,19.108],[84.798,19.128],[84.842,19.191],[84.887,19.235],[85.005,19.33],[85.083,19.378],[85.109,19.415],[85.241,19.514],[85.343,19.581],[85.548,19.682],[85.54,19.696],[85.656,19.743],[85.658,19.735],[85.851,19.802],[85.954,19.83],[86.048,19.846],[86.217,19.895],[86.312,19.943],[86.368,19.95],[86.318,19.987],[86.386,19.977],[86.435,20.019],[86.44,20.057],[86.478,20.092],[86.55,20.194],[86.679,20.26],[86.724,20.294],[86.688,20.285],[86.777,20.337],[86.779,20.395],[86.73,20.399],[86.738,20.48],[86.805,20.547],[87.043,20.703],[86.993,20.699],[86.938,20.715],[87.007,20.717],[86.996,20.77],[86.892,20.767],[86.887,20.794],[86.97,20.788],[86.974,20.825],[86.937,20.917],[86.835,21.113],[86.824,21.173],[86.896,21.313],[86.992,21.415],[87.118,21.513],[87.237,21.553],[87.375,21.56],[87.434,21.596],[87.559,21.632],[87.657,21.646],[87.724,21.666],[87.762,21.695],[87.786,21.69],[87.938,21.815],[88.013,21.914],[88.05,22.016],[88.072,22.015],[88.181,22.087],[88.189,22.117],[88.133,22.184],[88.067,22.186],[88.017,22.221],[88.12,22.206],[88.187,22.185],[88.209,22.149],[88.224,22.075],[88.193,21.995],[88.156,21.959],[88.176,21.916],[88.167,21.875],[88.217,21.772],[88.22,21.702],[88.236,21.642],[88.215,21.613],[88.26,21.556],[88.291,21.556],[88.31,21.583],[88.286,21.603],[88.31,21.675],[88.295,21.705],[88.329,21.709],[88.38,21.681],[88.386,21.607],[88.41,21.592],[88.451,21.612],[88.473,21.677],[88.466,21.725],[88.478,21.791],[88.45,21.816],[88.491,21.85],[88.479,21.902],[88.51,21.941],[88.526,21.914],[88.5,21.885],[88.552,21.815],[88.58,21.888],[88.614,21.921],[88.601,21.965],[88.614,22.012],[88.656,22.064],[88.667,22.019],[88.723,22.003],[88.727,22.053],[88.752,22.075],[88.764,22.017],[88.752,21.976],[88.728,21.976],[88.714,21.882],[88.698,21.839],[88.714,21.803],[88.7,21.754],[88.712,21.692],[88.745,21.662],[88.826,21.659],[88.81,21.635],[88.849,21.616],[88.865,21.636],[88.843,21.71],[88.879,21.766],[88.872,21.706],[88.889,21.655],[88.92,21.63],[88.938,21.665],[88.957,21.617],[89.002,21.617],[89.027,21.599],[89.1,21.637],[89.088,21.679],[89.019,21.781],[89.029,21.867],[88.988,21.888],[89.062,21.933],[89.077,21.981],[89.042,22.047],[89.044,22.111],[89.096,22.149],[89.063,22.168],[89.071,22.197],[89.033,22.259],[88.996,22.286],[89.024,22.299],[88.985,22.325],[88.99,22.391],[88.973,22.407],[89,22.432],[88.959,22.552],[88.938,22.56],[88.96,22.612],[88.933,22.62],[88.931,22.651],[88.962,22.685],[88.928,22.718],[88.912,22.757],[88.958,22.797],[88.968,22.846],[88.945,22.881],[88.909,22.88],[88.893,22.953],[88.861,22.942],[88.865,23.001],[88.884,23.04],[88.865,23.078],[88.9,23.111],[88.939,23.177],[88.976,23.182],[88.99,23.216],[88.916,23.212],[88.912,23.234],[88.854,23.236],[88.809,23.255],[88.806,23.219],[88.719,23.256],[88.696,23.302],[88.745,23.307],[88.733,23.327],[88.765,23.367],[88.749,23.397],[88.765,23.449],[88.79,23.441],[88.79,23.503],[88.744,23.483],[88.723,23.513],[88.66,23.549],[88.638,23.598],[88.58,23.605],[88.594,23.641],[88.562,23.637],[88.575,23.677],[88.565,23.713],[88.593,23.799],[88.584,23.868],[88.664,23.883],[88.735,23.915],[88.742,24.049],[88.702,24.116],[88.746,24.147],[88.731,24.172],[88.74,24.255],[88.71,24.31],[88.63,24.306],[88.568,24.327],[88.555,24.293],[88.526,24.345],[88.507,24.344],[88.426,24.383],[88.391,24.372],[88.328,24.385],[88.263,24.446],[88.203,24.46],[88.106,24.546],[88.036,24.646],[88.009,24.668],[88.062,24.721],[88.066,24.751],[88.145,24.851],[88.175,24.86],[88.153,24.884],[88.138,24.936],[88.225,24.961],[88.273,24.897],[88.347,24.892],[88.324,24.916],[88.359,24.952],[88.382,24.939],[88.425,25.01],[88.453,25.037],[88.441,25.128],[88.46,25.159],[88.443,25.198],[88.475,25.213],[88.58,25.177],[88.613,25.204],[88.733,25.199],[88.734,25.185],[88.813,25.174],[88.844,25.214],[88.875,25.179],[88.941,25.174],[88.961,25.208],[88.951,25.245],[88.987,25.275],[89.008,25.264],[89.009,25.303],[88.938,25.301],[88.906,25.338],[88.884,25.326],[88.838,25.368],[88.824,25.401],[88.838,25.453],[88.811,25.523],[88.744,25.488],[88.707,25.5],[88.699,25.471],[88.646,25.478],[88.622,25.497],[88.548,25.518],[88.5,25.551],[88.5,25.584],[88.446,25.597],[88.454,25.665],[88.402,25.673],[88.375,25.715],[88.266,25.783],[88.269,25.808],[88.237,25.81],[88.21,25.787],[88.184,25.802],[88.153,25.776],[88.114,25.798],[88.114,25.855],[88.086,25.917],[88.122,25.948],[88.139,26.013],[88.174,26.019],[88.184,26.072],[88.158,26.097],[88.176,26.147],[88.342,26.22],[88.36,26.243],[88.35,26.283],[88.463,26.358],[88.524,26.359],[88.496,26.409],[88.485,26.46],[88.36,26.484],[88.353,26.451],[88.332,26.495],[88.351,26.511],[88.387,26.611],[88.415,26.633],[88.432,26.549],[88.485,26.54],[88.489,26.51],[88.52,26.511],[88.526,26.481],[88.557,26.485],[88.56,26.458],[88.595,26.452],[88.623,26.471],[88.626,26.434],[88.688,26.395],[88.709,26.333],[88.744,26.349],[88.746,26.322],[88.668,26.297],[88.685,26.28],[88.793,26.31],[88.819,26.295],[88.814,26.254],[88.838,26.232],[88.876,26.287],[88.926,26.284],[88.953,26.245],[89.049,26.242],[89.061,26.291],[88.985,26.301],[88.985,26.35],[88.922,26.362],[88.917,26.403],[88.946,26.448],[88.983,26.447],[88.983,26.421],[89.091,26.389],[89.1,26.337],[89.084,26.322],[89.136,26.321],[89.119,26.287],[89.149,26.21],[89.135,26.187],[89.155,26.138],[89.219,26.127],[89.251,26.091],[89.254,26.064],[89.324,26.038],[89.357,26.008],[89.393,26.008],[89.407,26.042],[89.463,25.998],[89.516,26.009],[89.558,25.965],[89.586,25.982],[89.579,26.026],[89.618,26.06],[89.649,26.062],[89.63,26.118],[89.595,26.14],[89.608,26.179],[89.659,26.177],[89.635,26.229],[89.685,26.22],[89.675,26.199],[89.699,26.171],[89.743,26.159],[89.755,26.114],[89.831,26.003],[89.873,25.976],[89.842,25.971],[89.839,25.941],[89.887,25.945],[89.832,25.871],[89.826,25.811],[89.841,25.761],[89.827,25.741],[89.871,25.663],[89.882,25.617],[89.852,25.466],[89.821,25.384],[89.84,25.319],[89.831,25.296],[89.876,25.285],[89.906,25.308],[90.057,25.259],[90.119,25.223],[90.31,25.189],[90.33,25.194],[90.37,25.163],[90.451,25.153],[90.519,25.172],[90.642,25.175],[90.727,25.158],[90.769,25.183],[90.861,25.158],[90.928,25.163],[91.072,25.197],[91.192,25.201],[91.252,25.197],[91.337,25.174],[91.364,25.178],[91.464,25.135],[91.556,25.15],[91.606,25.174],[91.604,25.14],[91.638,25.123],[91.692,25.137],[91.71,25.159],[91.743,25.144],[91.745,25.17],[91.913,25.182],[91.968,25.176],[92.062,25.188],[92.133,25.16],[92.134,25.143],[92.214,25.121],[92.208,25.109],[92.338,25.052],[92.425,25.03],[92.422,24.965],[92.47,24.963],[92.45,24.94],[92.489,24.947],[92.497,24.876],[92.437,24.856],[92.384,24.853],[92.344,24.894],[92.304,24.913],[92.245,24.909],[92.243,24.841],[92.273,24.828],[92.296,24.737],[92.261,24.69],[92.233,24.578],[92.231,24.531],[92.212,24.504],[92.169,24.532],[92.154,24.473],[92.169,24.428],[92.097,24.373],[92.045,24.375],[91.996,24.394],[91.967,24.379],[91.998,24.335],[91.981,24.324],[91.957,24.357],[91.92,24.337],[91.94,24.268],[91.902,24.137],[91.842,24.201],[91.745,24.247],[91.763,24.142],[91.688,24.162],[91.666,24.233],[91.66,24.19],[91.635,24.138],[91.637,24.102],[91.599,24.098],[91.592,24.075],[91.545,24.074],[91.413,24.116],[91.374,24.106],[91.397,24.05],[91.373,24.003],[91.379,23.975],[91.305,23.996],[91.264,23.944],[91.23,23.881],[91.254,23.837],[91.21,23.749],[91.166,23.749],[91.153,23.689],[91.208,23.687],[91.2,23.647],[91.161,23.655],[91.162,23.595],[91.208,23.543],[91.218,23.5],[91.249,23.49],[91.28,23.377],[91.315,23.361],[91.29,23.319],[91.324,23.238],[91.323,23.158],[91.347,23.102],[91.396,23.056],[91.417,23.082],[91.385,23.156],[91.381,23.192],[91.416,23.261],[91.455,23.257],[91.491,23.158],[91.55,23.038],[91.543,23],[91.577,22.965],[91.606,22.971],[91.619,22.937],[91.645,22.984],[91.721,22.988],[91.784,23.04],[91.773,23.067],[91.812,23.067],[91.806,23.18],[91.76,23.284],[91.766,23.312],[91.838,23.371],[91.9,23.441],[91.943,23.435],[91.937,23.467],[91.969,23.476],[91.965,23.535],[91.934,23.685],[91.96,23.735],[91.984,23.724],[92.001,23.671],[92.047,23.646],[92.079,23.649],[92.083,23.68],[92.121,23.693],[92.166,23.74],[92.178,23.708],[92.207,23.701],[92.223,23.653],[92.241,23.721],[92.28,23.719],[92.291,23.681],[92.273,23.643],[92.308,23.578],[92.334,23.428],[92.357,23.411],[92.354,23.38],[92.381,23.352],[92.364,23.323],[92.402,23.236],[92.347,23.236],[92.368,23.127],[92.358,23.103],[92.392,23.056],[92.374,22.972],[92.376,22.929],[92.397,22.93],[92.46,22.871],[92.455,22.819],[92.479,22.753],[92.505,22.739],[92.529,22.664],[92.539,22.589],[92.524,22.558],[92.543,22.499],[92.555,22.406],[92.571,22.36],[92.591,22.255],[92.605,22.123],[92.579,22.143],[92.575,22.116],[92.603,22.062],[92.594,22.032],[92.635,21.984],[92.651,22.016],[92.68,22.012],[92.695,22.154],[92.727,22.149],[92.775,22.107],[92.81,22.096],[92.841,22.059],[92.858,22.068],[92.864,22.024],[92.891,22.011],[92.903,21.941],[92.915,21.98],[92.952,22.03],[92.981,21.981],[93.005,21.987],[92.994,22.042],[93.005,22.105],[93.059,22.101],[93.037,22.144],[93.046,22.203],[93.111,22.204],[93.128,22.173],[93.161,22.197],[93.142,22.246],[93.199,22.256],[93.186,22.339],[93.185,22.428],[93.14,22.454],[93.115,22.563],[93.14,22.593],[93.109,22.635],[93.091,22.704],[93.106,22.743],[93.094,22.806],[93.11,22.818],[93.145,22.934],[93.143,22.976],[93.123,23.008],[93.127,23.044],[93.183,23.06],[93.241,23.007],[93.314,23.021],[93.366,23.122],[93.388,23.217],[93.363,23.279],[93.373,23.329],[93.355,23.352],[93.388,23.36],[93.394,23.499],[93.418,23.539],[93.428,23.588],[93.416,23.641],[93.438,23.687],[93.406,23.712],[93.392,23.756],[93.402,23.812],[93.385,23.872],[93.394,23.929],[93.35,23.946],[93.329,23.985],[93.338,24.061],[93.328,24.081],[93.398,24.085],[93.42,24.067],[93.471,23.965],[93.515,23.943],[93.56,23.982],[93.585,23.96],[93.624,24.011],[93.722,23.998],[93.754,24.005],[93.819,23.924],[93.893,23.953],[93.958,23.929],[94.016,23.927],[94.049,23.887],[94.096,23.889],[94.118,23.837],[94.157,23.848],[94.17,23.929],[94.19,23.933],[94.202,23.983],[94.255,24.082],[94.26,24.165],[94.276,24.173],[94.292,24.234],[94.322,24.277],[94.322,24.329],[94.35,24.334],[94.408,24.44],[94.398,24.482],[94.426,24.481],[94.456,24.573],[94.509,24.594],[94.54,24.644],[94.559,24.713],[94.602,24.709],[94.629,24.755],[94.618,24.781],[94.632,24.84],[94.687,24.893],[94.714,24.936],[94.697,24.959],[94.745,25.047],[94.736,25.135],[94.68,25.149],[94.576,25.214],[94.585,25.267],[94.635,25.358],[94.632,25.388],[94.673,25.424],[94.683,25.466],[94.806,25.492],[94.826,25.544],[94.854,25.564],[94.898,25.566],[94.882,25.59],[94.915,25.607],[94.925,25.65],[95.004,25.729],[95.041,25.742],[95.05,25.793],[95.009,25.867],[95.032,25.929],[95.096,25.956],[95.159,26.025],[95.186,26.073],[95.118,26.101],[95.117,26.163],[95.142,26.212],[95.114,26.233],[95.132,26.378],[95.096,26.401],[95.104,26.421],[95.073,26.473],[95.114,26.518],[95.107,26.541],[95.139,26.556],[95.149,26.616],[95.208,26.648],[95.234,26.682],[95.26,26.655],[95.304,26.651],[95.335,26.674],[95.431,26.7],[95.459,26.743],[95.483,26.747],[95.508,26.81],[95.543,26.835],[95.608,26.814],[95.632,26.874],[95.667,26.903],[95.706,26.881],[95.745,26.896],[95.755,26.954],[95.802,27.015],[95.875,27.015],[95.946,27.051],[95.969,27.1],[96.01,27.142],[96.022,27.18],[96.09,27.223],[96.185,27.249],[96.231,27.277],[96.273,27.273],[96.307,27.294],[96.407,27.288],[96.458,27.307],[96.519,27.287],[96.589,27.336],[96.606,27.366],[96.698,27.358],[96.703,27.371],[96.797,27.346],[96.884,27.26],[96.886,27.227],[96.857,27.192],[96.901,27.169],[96.956,27.164],[97.031,27.131],[97.071,27.09],[97.099,27.109],[97.138,27.091],[97.164,27.142],[97.09,27.215],[97.088,27.239],[96.998,27.319],[96.962,27.374],[96.96,27.404],[96.903,27.454],[96.928,27.512],[96.907,27.544],[96.903,27.614],[96.935,27.662],[96.977,27.664],[97.039,27.749],[97.089,27.735],[97.101,27.77],[97.226,27.874],[97.247,27.9],[97.298,27.916],[97.36,27.873],[97.379,27.892],[97.368,27.977],[97.395,28.013],[97.327,28.084],[97.326,28.14],[97.359,28.165],[97.345,28.215],[97.284,28.231],[97.237,28.294],[97.202,28.306],[97.126,28.362],[97.078,28.371],[97.025,28.33],[96.973,28.331],[96.925,28.353],[96.888,28.387],[96.893,28.418],[96.862,28.453],[96.861,28.483],[96.76,28.52],[96.762,28.553],[96.722,28.579],[96.719,28.606],[96.687,28.59],[96.65,28.617],[96.614,28.62],[96.551,28.562],[96.495,28.543],[96.512,28.453],[96.492,28.431],[96.474,28.496],[96.452,28.487],[96.409,28.524],[96.464,28.523],[96.475,28.573],[96.514,28.582],[96.51,28.61],[96.562,28.698],[96.603,28.673],[96.64,28.679],[96.632,28.733],[96.603,28.78],[96.572,28.79],[96.572,28.823],[96.521,28.869],[96.525,28.932],[96.503,28.949],[96.448,28.94],[96.43,29.013],[96.362,29.047],[96.365,29.081],[96.321,29.117],[96.244,29.087],[96.207,29.032],[96.185,29.046],[96.215,29.069],[96.2,29.099],[96.284,29.129],[96.305,29.185],[96.26,29.217],[96.265,29.244],[96.195,29.266],[96.154,29.295],[96.136,29.346],[96.054,29.383],[96.017,29.363],[95.966,29.376],[95.877,29.315],[95.84,29.323],[95.839,29.353],[95.737,29.298],[95.752,29.276],[95.709,29.204],[95.698,29.225],[95.648,29.21],[95.606,29.236],[95.603,29.196],[95.574,29.18],[95.508,29.195],[95.51,29.126],[95.458,29.137],[95.454,29.176],[95.419,29.181],[95.413,29.126],[95.299,29.136],[95.278,29.116],[95.271,29.073],[95.23,29.104],[95.179,29.104],[95.136,29.088],[95.104,29.096],[95.097,29.142],[94.995,29.169],[95.018,29.126],[94.961,29.16],[94.924,29.157],[94.848,29.183],[94.81,29.165],[94.804,29.208],[94.752,29.23],[94.735,29.287],[94.694,29.318],[94.591,29.272],[94.541,29.22],[94.511,29.231],[94.492,29.208],[94.457,29.213],[94.445,29.182],[94.391,29.184],[94.379,29.154],[94.293,29.152],[94.276,29.113],[94.312,29.079],[94.328,29.041],[94.366,29.026],[94.274,28.968],[94.261,28.932],[94.179,28.936],[94.175,28.912],[94.132,28.889],[94.059,28.875],[94.023,28.845],[94.02,28.795],[93.995,28.791],[93.975,28.821],[93.897,28.757],[93.79,28.737],[93.784,28.713],[93.707,28.664],[93.689,28.678],[93.637,28.655],[93.626,28.685],[93.512,28.668],[93.426,28.662],[93.374,28.603],[93.247,28.542],[93.168,28.455],[93.149,28.366],[93.051,28.311],[93.005,28.295],[92.991,28.273],[92.932,28.249],[92.922,28.201],[92.883,28.202],[92.833,28.175],[92.791,28.188],[92.739,28.154],[92.717,28.168],[92.677,28.151],[92.659,28.075],[92.712,28.066],[92.736,28.038],[92.73,27.978],[92.677,27.949],[92.652,27.916],[92.607,27.917],[92.527,27.854],[92.478,27.834],[92.456,27.793],[92.427,27.803],[92.424,27.835],[92.338,27.796],[92.297,27.833],[92.293,27.872],[92.245,27.888],[92.213,27.863],[92.143,27.835],[92.11,27.803],[92.058,27.781],[91.979,27.772],[91.965,27.739],[91.924,27.717],[91.874,27.722],[91.848,27.761],[91.643,27.761],[91.629,27.701],[91.573,27.66],[91.563,27.63],[91.584,27.608],[91.566,27.584],[91.652,27.483],[91.692,27.505],[91.709,27.477],[91.777,27.465],[91.923,27.474],[91.943,27.46],[92.019,27.478],[92.037,27.418],[92.056,27.4],[92.048,27.362],[92.065,27.327],[92.121,27.289],[92.039,27.255],[92.071,27.238],[92.057,27.189],[92.027,27.169],[92.023,27.11],[92.045,27.052],[92.082,27.041],[92.078,27.018],[92.12,26.972],[92.115,26.894],[92.103,26.867],[92.056,26.847],[91.983,26.86],[91.964,26.884],[91.892,26.921],[91.859,26.913],[91.824,26.865],[91.721,26.812],[91.69,26.807],[91.625,26.821],[91.592,26.805],[91.495,26.792],[91.408,26.84],[91.375,26.795],[91.336,26.78],[91.236,26.812],[91.145,26.811],[91.097,26.822],[91.053,26.783],[90.992,26.795],[90.952,26.785],[90.694,26.772],[90.546,26.817],[90.417,26.905],[90.356,26.901],[90.346,26.874],[90.3,26.848],[90.23,26.859],[90.188,26.807],[90.194,26.774],[90.046,26.73],[89.897,26.725],[89.862,26.738],[89.861,26.702],[89.775,26.702],[89.755,26.734],[89.724,26.723],[89.671,26.74],[89.659,26.719],[89.617,26.729],[89.653,26.767],[89.638,26.782],[89.566,26.799],[89.56,26.813],[89.47,26.803],[89.439,26.841],[89.39,26.842],[89.379,26.862],[89.319,26.852],[89.263,26.814],[89.134,26.807],[89.101,26.844],[89.096,26.892],[89.021,26.941],[88.979,26.918],[88.945,26.933],[88.952,26.968],[88.921,26.994],[88.875,26.943],[88.88,27.066],[88.872,27.108],[88.802,27.139],[88.746,27.142],[88.787,27.183],[88.802,27.249],[88.904,27.273],[88.916,27.331],[88.895,27.333],[88.861,27.386],[88.808,27.404],[88.777,27.469],[88.79,27.516],[88.763,27.566],[88.792,27.574],[88.804,27.624],[88.849,27.669],[88.857,27.816],[88.883,27.835],[88.881,27.892],[88.861,27.927],[88.837,27.927],[88.844,27.993],[88.755,28.08],[88.667,28.077],[88.637,28.118],[88.602,28.09],[88.564,28.09],[88.546,28.034],[88.495,28.055],[88.468,28.017],[88.429,28.007],[88.414,27.981],[88.323,27.98],[88.248,27.945],[88.238,27.97],[88.187,27.943],[88.142,27.965],[88.118,27.918],[88.136,27.882],[88.201,27.837],[88.173,27.821],[88.197,27.791],[88.158,27.74],[88.144,27.664],[88.114,27.611],[88.09,27.596],[88.044,27.478],[88.074,27.426],[88.047,27.405],[88.042,27.37],[88.066,27.336],[88.032,27.286],[88.007,27.143],[87.991,27.106],[88.021,27.088],[88.037,27.037],[88.076,27.036],[88.088,27.008],[88.135,26.985],[88.12,26.95],[88.146,26.921],[88.136,26.9],[88.172,26.869],[88.167,26.838],[88.188,26.771],[88.167,26.7],[88.163,26.646],[88.141,26.623],[88.097,26.535],[88.104,26.465],[88.091,26.426],[88.034,26.389],[88.03,26.365],[87.991,26.37],[87.917,26.435],[87.888,26.487],[87.849,26.437],[87.793,26.469],[87.767,26.411],[87.734,26.408],[87.677,26.436],[87.652,26.394],[87.587,26.382],[87.548,26.418],[87.466,26.44],[87.388,26.419],[87.356,26.388],[87.341,26.347],[87.312,26.372],[87.266,26.374],[87.266,26.406],[87.186,26.414],[87.162,26.404],[87.091,26.45],[87.072,26.586],[87.045,26.587],[87.015,26.532],[86.933,26.517],[86.93,26.49],[86.894,26.488],[86.894,26.462],[86.832,26.439],[86.77,26.458],[86.741,26.425],[86.696,26.449],[86.626,26.468],[86.57,26.497],[86.542,26.538],[86.498,26.542],[86.398,26.593],[86.308,26.62],[86.253,26.615],[86.232,26.593],[86.191,26.615],[86.136,26.606],[86.119,26.63],[86.027,26.667],[85.956,26.649],[85.928,26.617],[85.859,26.569],[85.851,26.609],[85.818,26.603],[85.802,26.624],[85.748,26.639],[85.725,26.671],[85.734,26.796],[85.721,26.82],[85.642,26.853],[85.624,26.874],[85.543,26.838],[85.495,26.797],[85.451,26.782],[85.408,26.791],[85.334,26.742],[85.232,26.762],[85.211,26.758],[85.177,26.81],[85.19,26.87],[85.099,26.871],[85.057,26.849],[85.024,26.854],[85.053,26.889],[85.005,26.895],[84.969,26.916],[84.963,26.96],[84.89,26.971],[84.854,27.008],[84.808,27.017],[84.794,26.997],[84.757,27.003],[84.643,27.046],[84.683,27.144],[84.689,27.221],[84.622,27.337],[84.441,27.371],[84.347,27.375],[84.277,27.396],[84.254,27.454],[84.208,27.442],[84.209,27.465],[84.149,27.486],[84.151,27.517],[84.098,27.517],[84.052,27.443],[83.945,27.442],[83.885,27.433],[83.854,27.446],[83.833,27.426],[83.883,27.38],[83.864,27.346],[83.831,27.37],[83.614,27.469],[83.388,27.48],[83.383,27.442],[83.405,27.419],[83.374,27.357],[83.305,27.331],[83.272,27.353],[83.272,27.383],[83.211,27.424],[83.188,27.454],[83.035,27.449],[82.954,27.468],[82.929,27.501],[82.736,27.502],[82.755,27.594],[82.712,27.663],[82.709,27.722],[82.541,27.686],[82.473,27.676],[82.402,27.704],[82.368,27.742],[82.303,27.773],[82.209,27.843],[82.154,27.867],[82.121,27.866],[82.07,27.924],[81.968,27.929],[81.9,27.854],[81.834,27.897],[81.805,27.904],[81.698,27.988],[81.644,27.994],[81.478,28.083],[81.484,28.119],[81.447,28.161],[81.375,28.177],[81.371,28.143],[81.334,28.14],[81.321,28.197],[81.233,28.289],[81.234,28.325],[81.211,28.361],[81.08,28.385],[81,28.454],[80.916,28.458],[80.909,28.498],[80.876,28.511],[80.866,28.49],[80.784,28.529],[80.768,28.566],[80.715,28.568],[80.678,28.604],[80.668,28.642],[80.612,28.639],[80.58,28.661],[80.59,28.68],[80.54,28.691],[80.504,28.665],[80.518,28.552],[80.472,28.592],[80.46,28.622],[80.414,28.639],[80.376,28.629],[80.326,28.666],[80.316,28.701],[80.279,28.709],[80.25,28.758],[80.216,28.756],[80.118,28.829],[80.065,28.838],[80.058,28.917],[80.1,28.987],[80.118,28.982],[80.145,29.104],[80.185,29.137],[80.235,29.119],[80.273,29.144],[80.249,29.221],[80.297,29.206],[80.304,29.285],[80.318,29.304],[80.28,29.346],[80.276,29.392],[80.242,29.412],[80.246,29.447],[80.302,29.453],[80.313,29.485],[80.358,29.533],[80.343,29.553],[80.379,29.562],[80.403,29.59],[80.416,29.651],[80.391,29.664],[80.366,29.729],[80.407,29.795],[80.492,29.795],[80.507,29.823],[80.553,29.85],[80.595,29.953],[80.63,29.965],[80.673,29.957],[80.72,30],[80.739,30],[80.761,30.049],[80.806,30.09],[80.879,30.132],[80.863,30.169],[80.92,30.226],[80.933,30.177],[80.997,30.186],[81.045,30.211],[81.031,30.247],[80.982,30.271],[80.927,30.267],[80.907,30.304],[80.802,30.323],[80.765,30.372],[80.715,30.414],[80.607,30.471],[80.541,30.449],[80.499,30.488],[80.444,30.498],[80.418,30.524],[80.345,30.52],[80.315,30.565],[80.255,30.565],[80.209,30.588],[80.219,30.643],[80.198,30.686],[80.233,30.69],[80.249,30.72],[80.239,30.762],[80.219,30.752],[80.179,30.806],[80.112,30.78],[80.05,30.841],[79.962,30.889],[79.929,30.883],[79.889,30.918],[79.876,30.966],[79.815,30.973],[79.752,31.006],[79.739,30.983],[79.603,30.94],[79.553,30.957],[79.516,30.997],[79.507,31.032],[79.427,31.023],[79.414,31.107],[79.33,31.132],[79.312,31.148],[79.301,31.219],[79.226,31.261],[79.25,31.293],[79.22,31.317],[79.236,31.335],[79.171,31.363],[79.177,31.385],[79.142,31.432],[79.075,31.459],[79.061,31.43],[79.019,31.427],[79.019,31.349],[78.945,31.366],[78.913,31.31],[78.883,31.286],[78.778,31.312],[78.75,31.369],[78.795,31.444],[78.758,31.483],[78.727,31.483],[78.731,31.533],[78.822,31.579],[78.847,31.607],[78.809,31.639],[78.801,31.678],[78.761,31.675],[78.704,31.81],[78.734,31.831],[78.742,31.902],[78.769,31.931],[78.78,31.994],[78.74,32.001],[78.682,32.115],[78.631,32.126],[78.591,32.168],[78.599,32.194],[78.56,32.202],[78.52,32.262],[78.488,32.276],[78.51,32.303],[78.476,32.332],[78.472,32.442],[78.393,32.539],[78.42,32.569],[78.502,32.585],[78.547,32.619],[78.608,32.601],[78.641,32.61],[78.631,32.635],[78.748,32.691],[78.742,32.655],[78.781,32.616],[78.757,32.567],[78.813,32.434],[78.869,32.414],[78.913,32.368],[78.968,32.336],[78.989,32.37],[79.058,32.387],[79.104,32.374],[79.132,32.481],[79.184,32.498],[79.188,32.516],[79.248,32.517],[79.276,32.556],[79.292,32.539],[79.331,32.565],[79.336,32.54],[79.413,32.52],[79.414,32.542],[79.463,32.606],[79.548,32.677],[79.543,32.73],[79.557,32.759],[79.481,32.801],[79.461,32.833],[79.473,32.876],[79.364,32.938],[79.331,33.001],[79.328,33.034],[79.359,33.061],[79.373,33.119],[79.413,33.177],[79.385,33.202],[79.324,33.19],[79.217,33.238],[79.152,33.182],[79.107,33.2],[79.033,33.278],[79.027,33.32],[78.963,33.339],[78.937,33.387],[78.931,33.487],[78.91,33.565],[78.888,33.573],[78.907,33.62],[79.004,33.607],[79.085,33.62],[79.064,33.666],[79.008,33.693],[79.028,33.754],[78.965,33.821],[78.937,33.913],[78.887,33.973],[78.903,34.002],[78.995,34.037],[79.019,34.016],[79.109,33.99],[79.171,34.022],[79.225,34.011],[79.249,34.024],[79.316,34.015],[79.367,33.994],[79.41,34.01],[79.429,34.06],[79.416,34.1],[79.491,34.134],[79.491,34.191],[79.559,34.209],[79.607,34.238],[79.601,34.308],[79.573,34.321],[79.535,34.401],[79.531,34.443],[79.509,34.454],[79.538,34.479],[79.563,34.458],[79.674,34.455],[79.703,34.486],[79.722,34.472],[79.794,34.48],[79.811,34.54],[79.788,34.564],[79.802,34.589],[79.787,34.627],[79.898,34.696],[79.952,34.674],[79.972,34.7],[80.015,34.694],[80.074,34.706],[80.067,34.762],[80.099,34.775],[80.137,34.869],[80.205,34.891],[80.186,34.946],[80.227,34.972],[80.196,35.113],[80.236,35.154],[80.223,35.171],[80.255,35.206],[80.28,35.203],[80.294,35.268],[80.266,35.296],[80.288,35.358],[80.347,35.391],[80.377,35.392],[80.421,35.443],[80.412,35.477],[80.366,35.525],[80.302,35.534],[80.264,35.568],[80.224,35.555],[80.205,35.575],[80.166,35.547],[80.183,35.509],[80.142,35.498],[80.081,35.45],[80.072,35.423],[80.035,35.439],[79.965,35.571],[79.999,35.602],[79.955,35.616],[79.868,35.597],[79.846,35.575],[79.817,35.627],[79.704,35.639],[79.679,35.7],[79.645,35.724],[79.639,35.778],[79.593,35.789],[79.564,35.83],[79.588,35.878],[79.558,35.88],[79.501,35.847],[79.452,35.883],[79.468,35.9],[79.44,35.934],[79.437,35.972],[79.343,35.988],[79.338,35.963],[79.27,35.927],[79.164,35.945],[79.078,35.947],[79.026,35.915],[78.955,35.949],[78.926,35.945],[78.856,35.974],[78.8,35.87],[78.676,35.853],[78.657,35.822],[78.608,35.815],[78.559,35.773],[78.463,35.764],[78.441,35.781],[78.409,35.731],[78.342,35.72],[78.244,35.725],[78.197,35.64],[78.162,35.593],[78.157,35.551],[78.103,35.556],[78.091,35.533],[78.04,35.587],[78.022,35.564],[77.978,35.572],[77.938,35.559],[77.911,35.462],[77.815,35.522],[77.742,35.495],[77.688,35.453],[77.651,35.487],[77.63,35.462],[77.558,35.488],[77.519,35.486]]],[[[93.846,7.245],[93.813,7.238],[93.815,7.216],[93.756,7.212],[93.735,7.189],[93.691,7.189],[93.66,7.128],[93.676,7.037],[93.7,7.022],[93.752,6.96],[93.827,6.821],[93.822,6.762],[93.853,6.757],[93.866,6.813],[93.892,6.795],[93.915,6.81],[93.91,6.905],[93.926,6.942],[93.952,6.952],[93.931,6.99],[93.94,7.011],[93.922,7.062],[93.899,7.085],[93.892,7.205],[93.859,7.215],[93.846,7.245]]],[[[93.736,7.423],[93.72,7.443],[93.718,7.4],[93.663,7.367],[93.648,7.372],[93.647,7.267],[93.664,7.248],[93.709,7.298],[93.737,7.309],[93.775,7.38],[93.739,7.401],[93.736,7.423]]],[[[93.378,8.021],[93.32,7.994],[93.31,7.951],[93.339,7.89],[93.372,7.878],[93.408,7.9],[93.457,7.87],[93.468,7.89],[93.455,7.932],[93.397,7.974],[93.404,8.006],[93.378,8.021]]],[[[93.567,8.026],[93.546,8.024],[93.519,7.983],[93.59,7.926],[93.593,7.988],[93.567,8.026]]],[[[93.598,8.113],[93.576,8.125],[93.59,8.055],[93.614,8.046],[93.598,8.113]]],[[[93.537,8.236],[93.505,8.228],[93.467,8.182],[93.465,8.15],[93.497,8.052],[93.536,8.083],[93.547,8.067],[93.498,8.019],[93.561,8.037],[93.557,8.089],[93.509,8.148],[93.557,8.207],[93.537,8.236]]],[[[93.131,8.355],[93.109,8.349],[93.088,8.291],[93.117,8.232],[93.193,8.195],[93.21,8.217],[93.159,8.243],[93.131,8.282],[93.149,8.342],[93.131,8.355]]],[[[93.628,8.529],[93.623,8.449],[93.645,8.459],[93.643,8.52],[93.628,8.529]]],[[[92.78,9.247],[92.764,9.215],[92.72,9.211],[92.719,9.15],[92.742,9.12],[92.809,9.12],[92.832,9.162],[92.816,9.218],[92.78,9.247]]],[[[72.2,10.881],[72.175,10.868],[72.179,10.841],[72.2,10.881]]],[[[92.549,10.88],[92.536,10.898],[92.467,10.86],[92.407,10.789],[92.385,10.791],[92.386,10.657],[92.416,10.629],[92.411,10.588],[92.384,10.537],[92.402,10.526],[92.442,10.543],[92.485,10.511],[92.537,10.511],[92.578,10.568],[92.548,10.592],[92.621,10.681],[92.621,10.764],[92.586,10.789],[92.589,10.853],[92.549,10.88]]],[[[72.779,11.191],[72.817,11.257],[72.79,11.239],[72.779,11.191]]],[[[92.661,11.494],[92.641,11.511],[92.62,11.45],[92.63,11.4],[92.597,11.397],[92.589,11.365],[92.611,11.34],[92.7,11.365],[92.664,11.405],[92.695,11.422],[92.688,11.466],[92.661,11.494]]],[[[92.233,11.587],[92.227,11.525],[92.272,11.514],[92.288,11.532],[92.273,11.585],[92.233,11.587]]],[[[92.548,11.605],[92.538,11.551],[92.58,11.583],[92.548,11.605]]],[[[93.024,11.848],[93.02,11.829],[93.068,11.81],[93.074,11.842],[93.024,11.848]]],[[[92.975,12.033],[92.93,11.993],[92.965,11.981],[92.979,11.949],[93.006,11.945],[93.045,11.88],[93.058,11.887],[93.049,11.943],[92.991,12.04],[92.975,12.033]]],[[[93.006,12.103],[92.97,12.103],[92.969,12.072],[92.997,12.045],[93.006,12.103]]],[[[92.975,12.147],[92.968,12.118],[92.995,12.112],[92.975,12.147]]],[[[93.032,12.147],[93.008,12.129],[93.014,12.08],[93.047,12.045],[93.056,12.08],[93.032,12.147]]],[[[93.079,12.209],[93.055,12.176],[93.045,12.126],[93.081,12.082],[93.096,12.192],[93.079,12.209]]],[[[92.71,12.227],[92.669,12.209],[92.63,12.107],[92.62,12.012],[92.624,11.933],[92.618,11.854],[92.603,11.9],[92.572,11.94],[92.542,11.908],[92.521,11.849],[92.559,11.807],[92.561,11.722],[92.605,11.707],[92.6,11.663],[92.617,11.628],[92.614,11.59],[92.657,11.547],[92.671,11.501],[92.71,11.499],[92.716,11.474],[92.736,11.507],[92.74,11.556],[92.762,11.608],[92.758,11.668],[92.705,11.645],[92.681,11.62],[92.672,11.647],[92.712,11.66],[92.709,11.695],[92.764,11.699],[92.799,11.883],[92.792,11.934],[92.75,11.928],[92.739,11.893],[92.732,11.953],[92.764,11.978],[92.746,12.033],[92.766,12.02],[92.797,12.052],[92.75,12.052],[92.74,12.099],[92.764,12.172],[92.716,12.173],[92.71,12.227]]],[[[92.74,12.206],[92.771,12.179],[92.775,12.22],[92.754,12.227],[92.74,12.206]]],[[[93.114,12.238],[93.094,12.255],[93.069,12.229],[93.112,12.205],[93.114,12.238]]],[[[92.717,12.295],[92.726,12.231],[92.735,12.294],[92.717,12.295]]],[[[92.95,12.277],[92.911,12.286],[92.93,12.258],[92.95,12.277]]],[[[92.827,12.303],[92.78,12.307],[92.786,12.277],[92.751,12.244],[92.772,12.227],[92.786,12.237],[92.775,12.208],[92.778,12.183],[92.747,12.082],[92.773,12.059],[92.818,12.103],[92.832,12.167],[92.855,12.154],[92.861,12.188],[92.886,12.19],[92.873,12.245],[92.898,12.255],[92.877,12.301],[92.842,12.302],[92.835,12.298],[92.827,12.303]]],[[[92.876,12.405],[92.853,12.4],[92.89,12.375],[92.876,12.405]]],[[[92.97,12.412],[92.942,12.416],[92.927,12.36],[92.942,12.354],[92.97,12.412]]],[[[92.725,12.825],[92.704,12.792],[92.72,12.719],[92.733,12.717],[92.725,12.825]]],[[[92.91,12.911],[92.858,12.876],[92.8,12.884],[92.793,12.833],[92.762,12.842],[92.73,12.822],[92.747,12.719],[92.743,12.655],[92.713,12.6],[92.701,12.518],[92.718,12.488],[92.706,12.327],[92.747,12.296],[92.78,12.314],[92.816,12.314],[92.835,12.302],[92.889,12.314],[92.903,12.337],[92.87,12.367],[92.84,12.423],[92.898,12.441],[92.918,12.419],[92.963,12.471],[92.99,12.532],[92.966,12.597],[92.978,12.737],[92.941,12.773],[92.964,12.791],[92.937,12.86],[92.93,12.907],[92.91,12.911]]],[[[92.711,12.986],[92.677,12.963],[92.679,12.891],[92.66,12.862],[92.681,12.78],[92.73,12.87],[92.722,12.982],[92.711,12.986]]],[[[93.017,12.988],[92.995,12.99],[92.96,12.937],[92.988,12.925],[92.993,12.962],[93.017,12.988]]],[[[92.719,13.098],[92.698,13.085],[92.719,13.061],[92.719,13.098]]],[[[93.049,13.546],[93.038,13.575],[93.022,13.541],[93.003,13.568],[92.997,13.528],[92.941,13.523],[92.883,13.47],[92.88,13.385],[92.842,13.363],[92.83,13.307],[92.85,13.297],[92.83,13.267],[92.862,13.238],[92.84,13.214],[92.817,13.145],[92.857,13.135],[92.817,13.123],[92.795,13.013],[92.83,13],[92.798,12.965],[92.812,12.896],[92.862,12.892],[92.869,12.937],[92.915,12.979],[92.913,12.947],[92.946,12.965],[92.912,13.005],[92.921,13.042],[92.97,13.007],[93.015,13.024],[93.041,13.06],[93.044,13.186],[93.065,13.228],[93.028,13.292],[92.994,13.325],[93.052,13.35],[93.051,13.316],[93.078,13.305],[93.096,13.328],[93.06,13.376],[93.041,13.46],[93.049,13.546]]],[[[93.029,13.67],[92.994,13.66],[92.996,13.638],[93.044,13.629],[93.029,13.67]]],[[[88.53,21.56],[88.534,21.579],[88.497,21.6],[88.482,21.559],[88.53,21.56]]],[[[88.845,21.6],[88.851,21.56],[88.9,21.569],[88.845,21.6]]],[[[88.553,21.631],[88.524,21.652],[88.512,21.599],[88.535,21.59],[88.545,21.569],[88.59,21.602],[88.553,21.631]]],[[[88.308,21.706],[88.314,21.606],[88.353,21.651],[88.345,21.692],[88.308,21.706]]],[[[88.727,21.666],[88.69,21.683],[88.721,21.639],[88.71,21.591],[88.731,21.576],[88.791,21.584],[88.769,21.655],[88.727,21.666]]],[[[88.211,21.67],[88.205,21.724],[88.181,21.695],[88.205,21.601],[88.233,21.642],[88.211,21.67]]],[[[88.559,21.73],[88.518,21.71],[88.544,21.639],[88.603,21.623],[88.603,21.684],[88.559,21.73]]],[[[88.545,21.812],[88.504,21.761],[88.526,21.719],[88.571,21.735],[88.572,21.786],[88.545,21.812]]],[[[88.598,21.847],[88.577,21.816],[88.614,21.799],[88.598,21.847]]],[[[88.169,21.786],[88.174,21.817],[88.14,21.874],[88.125,21.865],[88.06,21.736],[88.042,21.65],[88.073,21.631],[88.134,21.625],[88.157,21.647],[88.155,21.696],[88.172,21.736],[88.169,21.786]]],[[[88.646,21.917],[88.595,21.853],[88.643,21.789],[88.658,21.896],[88.646,21.917]]],[[[88.664,22.019],[88.635,21.997],[88.632,21.954],[88.679,21.944],[88.715,22.001],[88.664,22.019]]],[[[88.07,21.922],[88.142,22.028],[88.08,22.009],[88.049,21.916],[88.07,21.922]]],[[[68.168,23.734],[68.195,23.788],[68.168,23.771],[68.168,23.734]]]]}}]}